STARLINK-1316_new
1 15415C 20019BH  21326.16735676  .00000242  00000-0  16199-4 0  3268
2 15415  53.0526 337.9854 0001700  54.4466 235.9164 15.06396621    18
STARLINK-1316_old
1 25415C 20019BH  21325.12393876 -.00000095  00000-0 -63775-5 0  3255
2 25415  53.0522 342.6699 0001619  55.2284 333.5539 15.06385857    10
